{"fetched_at":"2026-07-20T18:29:43.707Z","source":"https://celestrak.org/NORAD/elements/gp.php?NAME=SENTINEL&FORMAT=JSON","constellation":"sentinel-5p","records":[{"OBJECT_NAME":"SENTINEL-5P","OBJECT_ID":"2017-064A","EPOCH":"2026-07-20T06:14:02.769792","CLASSIFICATION_TYPE":"U","MEAN_MOTION":14.19523773,"ECCENTRICITY":0.00011995,"INCLINATION":98.7929,"RA_OF_ASC_NODE":143.1572,"ARG_OF_PERICENTER":93.2254,"MEAN_ANOMALY":266.906,"EPHEMERIS_TYPE":0,"NORAD_CAT_ID":42969,"ELEMENT_SET_NO":999,"REV_AT_EPOCH":45425,"BSTAR":0.00002415486,"MEAN_MOTION_DOT":7e-8,"MEAN_MOTION_DDOT":0}]}
